[{"OBJECT_NAME":"STARLINK-31784","OBJECT_ID":"2024-080T","EPOCH":"2026-03-09T23:33:08.214912","MEAN_MOTION":15.27572343,"ECCENTRICITY":0.00013919,"INCLINATION":43.0057,"RA_OF_ASC_NODE":40.0291,"ARG_OF_PERICENTER":262.4539,"MEAN_ANOMALY":97.6155,"EPHEMERIS_TYPE":0,"CLASSIFICATION_TYPE":"U","NORAD_CAT_ID":59618,"ELEMENT_SET_NO":999,"REV_AT_EPOCH":10453,"BSTAR":6.9501051e-5,"MEAN_MOTION_DOT":1.65e-5,"MEAN_MOTION_DDOT":0},{"OBJECT_NAME":"KUIPER-00276","OBJECT_ID":"2026-030AG","EPOCH":"2026-03-09T22:00:01.999584","MEAN_MOTION":15.30162454,"ECCENTRICITY":0.00186471,"INCLINATION":51.8824,"RA_OF_ASC_NODE":218.7283,"ARG_OF_PERICENTER":66.9346,"MEAN_ANOMALY":101.1527,"EPHEMERIS_TYPE":0,"CLASSIFICATION_TYPE":"U","NORAD_CAT_ID":67794,"ELEMENT_SET_NO":999,"REV_AT_EPOCH":482,"BSTAR":0.0021152378,"MEAN_MOTION_DOT":0.00063116,"MEAN_MOTION_DDOT":0}]
